0 OPS 4682 DEB
1 26731U 65027BE  13287.37913785  .00000026  00000-0  65966-4 0  1045
2 26731 090.2934 253.4417 0032437 092.0678 063.5421 12.93147713862156
0 OPS 4682 DEB
1 26731U 65027BE  13290.69872924  .00000420  00000-0  15058-2 0  1057
2 26731 090.2923 253.5287 0034578 082.7828 037.9961 12.93153433862588
0 OPS 4682 DEB
1 26731U 65027BE  13293.16148299  .00000987  00000-0  35806-2 0  1065
2 26731 090.2957 253.5998 0032336 078.0424 341.3531 12.93154638862903
0 OPS 4682 DEB
1 26731U 65027BE  13295.34845352  .00000981  00000-0  35580-2 0  1075
2 26731 090.2949 253.6547 0032812 073.3387 081.5058 12.93164638863189
